{
  "type": "FeatureCollection",
  "features": [
    {
      "type": "Feature",
      "properties": {
        "featurecla": "International Dateline",
        "note": "Digitized from Natural Earth 1:50m geographic_lines (public domain)"
      },
      "geometry": {
        "type": "MultiLineString",
        "coordinates": [
          [
            [180.0, 90.0],
            [180.0, 82.0],
            [180.0, 75.0],
            [-172.5, 73.0],
            [-172.5, 66.0],
            [-172.5, 60.0],
            [180.0, 55.0],
            [180.0, 51.0],
            [180.0, 45.0],
            [180.0, 35.0],
            [180.0, 25.0]
          ],
          [
            [180.0, 25.0],
            [180.0, 15.0],
            [-172.0, 15.0],
            [-172.0, 10.0],
            [-172.0, 5.0],
            [-172.0, 0.0],
            [-172.0, -5.0],
            [-172.0, -10.0]
          ],
          [
            [-172.0, -10.0],
            [-150.0, -10.0],
            [-150.0, -15.0],
            [-150.0, -20.0],
            [-150.0, -25.0],
            [180.0, -25.0],
            [180.0, -35.0],
            [180.0, -45.0]
          ],
          [
            [180.0, -45.0],
            [180.0, -55.0],
            [180.0, -65.0],
            [180.0, -75.0],
            [180.0, -90.0]
          ]
        ]
      }
    }
  ]
}
